SZ-21 MODULE            
1 66515U 25246C   26066.46287831  .00050102  00000+0  43323-3 0  9996
2 66515  41.4737 217.0662 0001429 294.3949  65.6744 15.68341086 17722
SHENZHOU-22             
1 66645U 25272A   26066.60376234  .00025948  00000+0  30832-3 0  9992
2 66645  41.4662 220.8523 0006959 260.1334  99.8719 15.60534588267522
SOYUZ-MS 28             
1 66664U 25275A   26066.51273615  .00014539  00000+0  27602-3 0  9990
2 66664  51.6318  83.1189 0008132 167.0679 193.0520 15.48507964554524
DUPLEX                  
1 66906U 98067XS  26066.27423626  .00039972  00000+0  56716-3 0  9996
2 66906  51.6285  81.5298 0002224 101.9633 258.1608 15.56027322 14752
ISS OBJECT XT           
1 66907U 98067XT  26066.41706409  .00193086  00000+0  16435-2 0  9996
2 66907  51.6248  77.2205 0004673  64.6105 295.5375 15.68423465 14826
ISS OBJECT XU           
1 66908U 98067XU  26066.54284614  .00187348  00000+0  15855-2 0  9999
2 66908  51.6244  76.5569 0004897  67.6315 292.5200 15.68582030 14842
SILVERSAT               
1 66909U 98067XV  26066.29346489  .00253597  00000+0  19116-2 0  9995
2 66909  51.6247  77.1411 0005453  60.9415 299.2128 15.71158496 14814
ISS OBJECT XW           
1 66910U 98067XW  26066.28354966  .00181703  00000+0  15885-2 0  9993
2 66910  51.6239  77.8210 0005017  72.1474 288.0069 15.67806072 14801
ISS OBJECT XX           
1 66911U 98067XX  26066.42204200  .00300355  00000+0  19880-2 0  9990
2 66911  51.6213  75.7321 0006965  69.2651 290.9094 15.74068362 14834
ISS OBJECT XY           
1 66912U 98067XY  26066.40836844  .00116951  00000+0  12419-2 0  9992
2 66912  51.6266  78.6712 0003107  76.3903 283.7437 15.63183270 14793
ISS OBJECT XZ           
1 67683U 98067XZ  26066.34475588  .00051344  00000+0  85045-3 0  9995
2 67683  51.6303  83.4992 0009462 177.7480 182.3554 15.51606883  4421
GXIBA-1                 
1 67684U 98067YA  26066.06384672  .00081342  00000+0  12347-2 0  9993
2 67684  51.6298  84.6245 0010892 167.0714 193.0558 15.53815499  4385
CORAL                   
1 67685U 98067YB  26066.46963546  .00057439  00000+0  93745-3 0  9993
2 67685  51.6305  82.8329 0011388 174.8728 185.2380 15.51949529  4443
ISS OBJECT YC           
1 67686U 98067YC  26066.27173056  .00071287  00000+0  11420-2 0  9998
2 67686  51.6305  83.7633 0007882 141.8436 218.3113 15.52411971  4411
LEOPARD                 
1 67687U 98067YD  26066.47147720  .00054618  00000+0  89855-3 0  9997
2 67687  51.6311  82.8468 0007804 146.5484 213.6000 15.51785936  4365
ISS OBJECT YE           
1 67688U 98067YE  26066.20947167  .00063728  00000+0  10314-2 0  9997
2 67688  51.6306  84.0971 0007791 142.0067 218.1474 15.52177677  4325
